{
  "type": "FeatureCollection",
  "features": [
    {
      "type": "Feature",
      "properties": {
        "norad_id": 66174,
        "name": "HTV-X1",
        "group": "stations",
        "lat": -43.71007739528385,
        "lon": -10.83131015777071,
        "alt_km": 420.123233960745,
        "timestamp": "2025-12-17T07:00:45.633306+00:00",
        "meta_object_name": "HTV-X1",
        "meta_object_id": "2025-241A",
        "meta_epoch": "2025-12-16T20:41:13.172928",
        "meta_mean_motion": 15.49626059,
        "meta_eccentricity": 0.00031782,
        "meta_inclination": 51.6308,
        "meta_ra_of_asc_node": 122.0659,
        "meta_arg_of_pericenter": 259.3256,
        "meta_mean_anomaly": 100.7375,
        "meta_ephemeris_type": 0,
        "meta_classification_type": "U",
        "meta_norad_cat_id": 66174,
        "meta_element_set_no": 999,
        "meta_rev_at_epoch": 51,
        "meta_bstar": 0.00014251236,
        "meta_mean_motion_dot": 7.581e-05,
        "meta_mean_motion_ddot": 0,
        "tle_line1": "1 66174U 25241A   25350.86195802  .00007581  00000+0  14251-3 0  9998",
        "tle_line2": "2 66174  51.6308 122.0659 0003178 259.3256 100.7375 15.49626059   511"
      },
      "geometry": {
        "type": "Point",
        "coordinates": [
          -10.83131015777071,
          -43.71007739528385
        ]
      }
    },
    {
      "type": "Feature",
      "properties": {
        "norad_id": 66515,
        "name": "SZ-21 MODULE",
        "group": "stations",
        "lat": 29.39021530807147,
        "lon": 128.65659714922074,
        "alt_km": 378.6675179275662,
        "timestamp": "2025-12-17T07:00:45.633317+00:00",
        "meta_object_name": "SZ-21 MODULE",
        "meta_object_id": "2025-246C",
        "meta_epoch": "2025-12-16T08:58:35.368608",
        "meta_mean_motion": 15.62674024,
        "meta_eccentricity": 0.00060905,
        "meta_inclination": 41.4775,
        "meta_ra_of_asc_node": 353.8744,
        "meta_arg_of_pericenter": 279.5924,
        "meta_mean_anomaly": 80.4228,
        "meta_ephemeris_type": 0,
        "meta_classification_type": "U",
        "meta_norad_cat_id": 66515,
        "meta_element_set_no": 999,
        "meta_rev_at_epoch": 501,
        "meta_bstar": 0.00023521282,
        "meta_mean_motion_dot": 0.00021423,
        "meta_mean_motion_ddot": 0,
        "tle_line1": "1 66515U 25246C   25350.37402047  .00021423  00000+0  23521-3 0  9991",
        "tle_line2": "2 66515  41.4775 353.8744 0006090 279.5924  80.4228 15.62674024  5017"
      },
      "geometry": {
        "type": "Point",
        "coordinates": [
          128.65659714922074,
          29.39021530807147
        ]
      }
    },
    {
      "type": "Feature",
      "properties": {
        "norad_id": 66645,
        "name": "SHENZHOU-22",
        "group": "stations",
        "lat": 7.089525911827096,
        "lon": 160.96883860990687,
        "alt_km": 389.00703050806624,
        "timestamp": "2025-12-17T07:00:45.633328+00:00",
        "meta_object_name": "SHENZHOU-22",
        "meta_object_id": "2025-272A",
        "meta_epoch": "2025-12-17T00:08:35.156544",
        "meta_mean_motion": 15.59356604,
        "meta_eccentricity": 0.00077847,
        "meta_inclination": 41.4682,
        "meta_ra_of_asc_node": 350.8038,
        "meta_arg_of_pericenter": 67.2573,
        "meta_mean_anomaly": 292.9088,
        "meta_ephemeris_type": 0,
        "meta_classification_type": "U",
        "meta_norad_cat_id": 66645,
        "meta_element_set_no": 999,
        "meta_rev_at_epoch": 26357,
        "meta_bstar": 0.00024375831,
        "meta_mean_motion_dot": 0.00019519,
        "meta_mean_motion_ddot": 0,
        "tle_line1": "1 66645U 25272A   25351.00596246  .00019519  00000+0  24376-3 0  9992",
        "tle_line2": "2 66645  41.4682 350.8038 0007784  67.2573 292.9088 15.59356604263572"
      },
      "geometry": {
        "type": "Point",
        "coordinates": [
          160.96883860990687,
          7.089525911827096
        ]
      }
    },
    {
      "type": "Feature",
      "properties": {
        "norad_id": 66664,
        "name": "SOYUZ-MS 28",
        "group": "stations",
        "lat": -43.71007845239729,
        "lon": -10.8313077047855,
        "alt_km": 420.12323397536784,
        "timestamp": "2025-12-17T07:00:45.633338+00:00",
        "meta_object_name": "SOYUZ-MS 28",
        "meta_object_id": "2025-275A",
        "meta_epoch": "2025-12-16T20:41:13.172928",
        "meta_mean_motion": 15.49626059,
        "meta_eccentricity": 0.00031782,
        "meta_inclination": 51.6308,
        "meta_ra_of_asc_node": 122.0659,
        "meta_arg_of_pericenter": 259.3256,
        "meta_mean_anomaly": 100.7375,
        "meta_ephemeris_type": 0,
        "meta_classification_type": "U",
        "meta_norad_cat_id": 66664,
        "meta_element_set_no": 999,
        "meta_rev_at_epoch": 128,
        "meta_bstar": 0.00014251236,
        "meta_mean_motion_dot": 7.581e-05,
        "meta_mean_motion_ddot": 0,
        "tle_line1": "1 66664U 25275A   25350.86195802  .00007581  00000+0  14251-3 0  9999",
        "tle_line2": "2 66664  51.6308 122.0659 0003178 259.3256 100.7375 15.49626059  1280"
      },
      "geometry": {
        "type": "Point",
        "coordinates": [
          -10.8313077047855,
          -43.71007845239729
        ]
      }
    },
    {
      "type": "Feature",
      "properties": {
        "norad_id": 66906,
        "name": "1998-067XS",
        "group": "stations",
        "lat": -47.65854508652396,
        "lon": 59.4403649917282,
        "alt_km": 417.9665270863461,
        "timestamp": "2025-12-17T07:00:45.633351+00:00",
        "meta_object_name": "1998-067XS",
        "meta_object_id": "1998-067XS",
        "meta_epoch": "2025-12-16T12:45:26.228448",
        "meta_mean_motion": 15.50774437,
        "meta_eccentricity": 0.00032711,
        "meta_inclination": 51.6305,
        "meta_ra_of_asc_node": 123.6106,
        "meta_arg_of_pericenter": 220.1232,
        "meta_mean_anomaly": 139.9515,
        "meta_ephemeris_type": 0,
        "meta_classification_type": "U",
        "meta_norad_cat_id": 66906,
        "meta_element_set_no": 999,
        "meta_rev_at_epoch": 220,
        "meta_bstar": 0.00042417105,
        "meta_mean_motion_dot": 0.00024501,
        "meta_mean_motion_ddot": 0,
        "tle_line1": "1 66906U 98067XS  25350.53155357  .00024501  00000+0  42417-3 0  9998",
        "tle_line2": "2 66906  51.6305 123.6106 0003271 220.1232 139.9515 15.50774437  2203"
      },
      "geometry": {
        "type": "Point",
        "coordinates": [
          59.4403649917282,
          -47.65854508652396
        ]
      }
    },
    {
      "type": "Feature",
      "properties": {
        "norad_id": 66907,
        "name": "1998-067XT",
        "group": "stations",
        "lat": -28.92114212857594,
        "lon": 93.80682068874657,
        "alt_km": 413.4710262215567,
        "timestamp": "2025-12-17T07:00:45.633362+00:00",
        "meta_object_name": "1998-067XT",
        "meta_object_id": "1998-067XT",
        "meta_epoch": "2025-12-16T20:21:31.143168",
        "meta_mean_motion": 15.51965497,
        "meta_eccentricity": 0.00040676,
        "meta_inclination": 51.63,
        "meta_ra_of_asc_node": 121.975,
        "meta_arg_of_pericenter": 250.8278,
        "meta_mean_anomaly": 109.2271,
        "meta_ephemeris_type": 0,
        "meta_classification_type": "U",
        "meta_norad_cat_id": 66907,
        "meta_element_set_no": 999,
        "meta_rev_at_epoch": 225,
        "meta_bstar": 0.00093338761,
        "meta_mean_motion_dot": 0.00057093,
        "meta_mean_motion_ddot": 0,
        "tle_line1": "1 66907U 98067XT  25350.84827712  .00057093  00000+0  93339-3 0  9995",
        "tle_line2": "2 66907  51.6300 121.9750 0004067 250.8278 109.2271 15.51965497  2252"
      },
      "geometry": {
        "type": "Point",
        "coordinates": [
          93.80682068874657,
          -28.92114212857594
        ]
      }
    },
    {
      "type": "Feature",
      "properties": {
        "norad_id": 66908,
        "name": "1998-067XU",
        "group": "stations",
        "lat": -26.565803203140604,
        "lon": 96.42099900287666,
        "alt_km": 413.232959511276,
        "timestamp": "2025-12-17T07:00:45.633375+00:00",
        "meta_object_name": "1998-067XU",
        "meta_object_id": "1998-067XU",
        "meta_epoch": "2025-12-16T14:09:49.500000",
        "meta_mean_motion": 15.5202573,
        "meta_eccentricity": 0.00042401,
        "meta_inclination": 51.6296,
        "meta_ra_of_asc_node": 123.2512,
        "meta_arg_of_pericenter": 248.5284,
        "meta_mean_anomaly": 111.5254,
        "meta_ephemeris_type": 0,
        "meta_classification_type": "U",
        "meta_norad_cat_id": 66908,
        "meta_element_set_no": 999,
        "meta_rev_at_epoch": 221,
        "meta_bstar": 0.00090601602,
        "meta_mean_motion_dot": 0.00055516,
        "meta_mean_motion_ddot": 0,
        "tle_line1": "1 66908U 98067XU  25350.59015625  .00055516  00000+0  90602-3 0  9998",
        "tle_line2": "2 66908  51.6296 123.2512 0004240 248.5284 111.5254 15.52025730  2213"
      },
      "geometry": {
        "type": "Point",
        "coordinates": [
          96.42099900287666,
          -26.565803203140604
        ]
      }
    }
  ]
}